{
  "norad_id": 57124,
  "name": "STARLINK-6146",
  "history": [
    {
      "epoch": "2026-03-28T05:15:59.393088",
      "apogee_km": 559.8632492307815,
      "perigee_km": 558.3212419140755,
      "latitude_deg": -41.5703855010898,
      "longitude_deg": -86.53400767990388,
      "semi_major_axis_km": 6937.229245572428,
      "eccentricity": 0.00011114,
      "inclination_deg": 43.0034,
      "raan_deg": 173.7101,
      "arg_perigee_deg": 270.6691,
      "mean_anomaly_deg": 89.4024,
      "mean_motion_rev_day": 15.0253187
    }
  ]
}