{"fetched_at":"2026-03-30T13:17:50Z","count":15418,"tles":[{"name":"STARLINK-6146","line1":"1 57124U 23090Z   26087.21943742  .00000833  00000+0  76699-4 0  9992","line2":"2 57124  43.0034 173.7101 0001111 270.6691  89.4024 15.02531870153200","category":"Starlink"}]}